start=new Date('2022-04-04T00:00:00.000Z').valueOf();
sats=[{"BSTAR":"0.00002443300000","ECCENTRICITY":"0.00015360","REV_AT_EPOCH":"9116","SITE":"AFETR","SEMIMAJOR_AXIS":"6925.394","MEAN_MOTION_DDOT":"0.0000000000000","COUNTRY_CODE":"US","OBJECT_NAME":"STARLINK-1545","MEAN_ANOMALY":"293.5027","PERIOD":"95.593","ARG_OF_PERICENTER":"66.6123","CLASSIFICATION_TYPE":"U","LAUNCH_DATE":"2020-08-18","TLE_LINE2":"2 46156  53.0523 262.8925 0001536  66.6123 293.5027 15.06385137 91169","INCLINATION":"53.0523","EPOCH":"2022-04-03T17:26:16.741824","MEAN_MOTION":"15.06385137","PERIAPSIS":"546.195","MEAN_ELEMENT_THEORY":"SGP4","ELEMENT_SET_NO":"999","DECAY_DATE":null,"MEAN_MOTION_DOT":"0.00000082","OBJECT_ID":"2020-057AR","TLE_LINE1":"1 46156U 20057AR  22093.72658266  .00000082  00000-0  24433-4 0  9994","FILE":"3386965","OBJECT_TYPE":"PAYLOAD","CENTER_NAME":"EARTH","NORAD_CAT_ID":"46156","APOAPSIS":"548.323","EPHEMERIS_TYPE":"0","TIME_SYSTEM":"UTC","RA_OF_ASC_NODE":"262.8925","GP_ID":"200376611","REF_FRAME":"TEME","RCS_SIZE":"LARGE"},{"OBJECT_ID":"2020-057AS","MEAN_MOTION_DOT":"0.00007737","TLE_LINE1":"1 46157U 20057AS  22093.84637735  .00007737  00000-0  53777-3 0  9992","MEAN_MOTION":"15.06396541","PERIAPSIS":"545.868","MEAN_ELEMENT_THEORY":"SGP4","EPOCH":"2022-04-03T20:18:47.003040","LAUNCH_DATE":"2020-08-18","TLE_LINE2":"2 46157  53.0550 242.3687 0001958  54.0311 306.0859 15.06396541 90215","INCLINATION":"53.0550","DECAY_DATE":null,"ELEMENT_SET_NO":"999","EPHEMERIS_TYPE":"0","NORAD_CAT_ID":"46157","APOAPSIS":"548.580","RCS_SIZE":"LARGE","GP_ID":"200376861","REF_FRAME":"TEME","RA_OF_ASC_NODE":"242.3687","TIME_SYSTEM":"UTC","FILE":"3386965","OBJECT_TYPE":"PAYLOAD","CENTER_NAME":"EARTH","REV_AT_EPOCH":"9021","SITE":"AFETR","SEMIMAJOR_AXIS":"6925.359","BSTAR":"0.00053777000000","ECCENTRICITY":"0.00019580","CLASSIFICATION_TYPE":"U","ARG_OF_PERICENTER":"54.0311","COUNTRY_CODE":"US","MEAN_MOTION_DDOT":"0.0000000000000","PERIOD":"95.592","MEAN_ANOMALY":"306.0859","OBJECT_NAME":"STARLINK-1587"},{"EPHEMERIS_TYPE":"0","APOAPSIS":"548.317","NORAD_CAT_ID":"46158","RA_OF_ASC_NODE":"242.3900","GP_ID":"200377613","REF_FRAME":"TEME","TIME_SYSTEM":"UTC","RCS_SIZE":"LARGE","FILE":"3386965","OBJECT_TYPE":"PAYLOAD","CENTER_NAME":"EARTH","OBJECT_ID":"2020-057AT","MEAN_MOTION_DOT":"-0.00002850","TLE_LINE1":"1 46158U 20057AT  22093.84269870 -.00002850  00000-0 -17261-3 0  9995","EPOCH":"2022-04-03T20:13:29.167680","TLE_LINE2":"2 46158  53.0548 242.3900 0001509  67.2635 292.8513 15.06380936 91477","LAUNCH_DATE":"2020-08-18","INCLINATION":"53.0548","PERIAPSIS":"546.227","MEAN_ELEMENT_THEORY":"SGP4","MEAN_MOTION":"15.06380936","ELEMENT_SET_NO":"999","DECAY_DATE":null,"CLASSIFICATION_TYPE":"U","ARG_OF_PERICENTER":"67.2635","COUNTRY_CODE":"US","MEAN_MOTION_DDOT":"0.0000000000000","PERIOD":"95.593","MEAN_ANOMALY":"292.8513","OBJECT_NAME":"STARLINK-1589","SITE":"AFETR","REV_AT_EPOCH":"9147","SEMIMAJOR_AXIS":"6925.407","BSTAR":"-0.00017261000000","ECCENTRICITY":"0.00015090"},{"ECCENTRICITY":"0.00013960","BSTAR":"-0.00007636600000","SEMIMAJOR_AXIS":"6925.381","REV_AT_EPOCH":"9090","SITE":"AFETR","PERIOD":"95.593","MEAN_ANOMALY":"291.6388","OBJECT_NAME":"STARLINK-1595","COUNTRY_CODE":"US","MEAN_MOTION_DDOT":"0.0000000000000","CLASSIFICATION_TYPE":"U","ARG_OF_PERICENTER":"68.4750","ELEMENT_SET_NO":"999","DECAY_DATE":null,"MEAN_ELEMENT_THEORY":"SGP4","PERIAPSIS":"546.279","MEAN_MOTION":"15.06389535","EPOCH":"2022-04-03T19:36:19.478304","TLE_LINE2":"2 46159  53.0547 282.5060 0001396  68.4750 291.6388 15.06389535 90903","LAUNCH_DATE":"2020-08-18","INCLINATION":"53.0547","TLE_LINE1":"1 46159U 20057AU  22093.81689211 -.00001418  00000-0 -76366-4 0  9999","OBJECT_ID":"2020-057AU","MEAN_MOTION_DOT":"-0.00001418","OBJECT_TYPE":"PAYLOAD","CENTER_NAME":"EARTH","FILE":"3386965","RCS_SIZE":"LARGE","RA_OF_ASC_NODE":"282.5060","GP_ID":"200377364","REF_FRAME":"TEME","TIME_SYSTEM":"UTC","EPHEMERIS_TYPE":"0","APOAPSIS":"548.212","NORAD_CAT_ID":"46159"},{"SEMIMAJOR_AXIS":"6925.365","REV_AT_EPOCH":"9117","SITE":"AFETR","ECCENTRICITY":"0.00018320","BSTAR":"-0.00003117000000","CLASSIFICATION_TYPE":"U","ARG_OF_PERICENTER":"56.2787","MEAN_ANOMALY":"303.8377","PERIOD":"95.592","OBJECT_NAME":"STARLINK-1598","COUNTRY_CODE":"US","MEAN_MOTION_DDOT":"0.0000000000000","TLE_LINE1":"1 46160U 20057AV  22093.80767014 -.00000746  00000-0 -31170-4 0  9995","OBJECT_ID":"2020-057AV","MEAN_MOTION_DOT":"-0.00000746","DECAY_DATE":null,"ELEMENT_SET_NO":"999","EPOCH":"2022-04-03T19:23:02.700096","INCLINATION":"53.0542","TLE_LINE2":"2 46160  53.0542 262.5372 0001832  56.2787 303.8377 15.06394674 91178","LAUNCH_DATE":"2020-08-18","PERIAPSIS":"545.961","MEAN_ELEMENT_THEORY":"SGP4","MEAN_MOTION":"15.06394674","GP_ID":"200376112","REF_FRAME":"TEME","RA_OF_ASC_NODE":"262.5372","TIME_SYSTEM":"UTC","RCS_SIZE":"LARGE","EPHEMERIS_TYPE":"0","APOAPSIS":"548.499","NORAD_CAT_ID":"46160","OBJECT_TYPE":"PAYLOAD","CENTER_NAME":"EARTH","FILE":"3386965"},{"BSTAR":"-0.00010738000000","ECCENTRICITY":"0.00013080","REV_AT_EPOCH":"9058","SITE":"AFETR","SEMIMAJOR_AXIS":"6925.391","COUNTRY_CODE":"US","MEAN_MOTION_DDOT":"0.0000000000000","PERIOD":"95.593","MEAN_ANOMALY":"282.3392","OBJECT_NAME":"STARLINK-1600","CLASSIFICATION_TYPE":"U","ARG_OF_PERICENTER":"77.7744","EPOCH":"2022-04-03T18:51:12.987072","TLE_LINE2":"2 46161  53.0545 262.6332 0001308  77.7744 282.3392 15.06386245 90585","LAUNCH_DATE":"2020-08-18","INCLINATION":"53.0545","PERIAPSIS":"546.350","MEAN_ELEMENT_THEORY":"SGP4","MEAN_MOTION":"15.06386245","DECAY_DATE":null,"ELEMENT_SET_NO":"999","OBJECT_ID":"2020-057AW","MEAN_MOTION_DOT":"-0.00001880","TLE_LINE1":"1 46161U 20057AW  22093.78556698 -.00001880  00000-0 -10738-3 0  9993","FILE":"3386516","CENTER_NAME":"EARTH","OBJECT_TYPE":"PAYLOAD","EPHEMERIS_TYPE":"0","APOAPSIS":"548.162","NORAD_CAT_ID":"46161","REF_FRAME":"TEME","GP_ID":"200347641","RA_OF_ASC_NODE":"262.6332","TIME_SYSTEM":"UTC","RCS_SIZE":"LARGE"},{"ARG_OF_PERICENTER":"64.0628","CLASSIFICATION_TYPE":"U","MEAN_MOTION_DDOT":"0.0000000000000","COUNTRY_CODE":"US","OBJECT_NAME":"STARLINK-1603","MEAN_ANOMALY":"296.0520","PERIOD":"95.593","SITE":"AFETR","REV_AT_EPOCH":"9119","SEMIMAJOR_AXIS":"6925.377","BSTAR":"0.00003273600000","ECCENTRICITY":"0.00015470","NORAD_CAT_ID":"46162","APOAPSIS":"548.313","EPHEMERIS_TYPE":"0","RCS_SIZE":"LARGE","TIME_SYSTEM":"UTC","REF_FRAME":"TEME","GP_ID":"200377114","RA_OF_ASC_NODE":"262.3286","FILE":"3386965","OBJECT_TYPE":"PAYLOAD","CENTER_NAME":"EARTH","MEAN_MOTION_DOT":"0.00000206","OBJECT_ID":"2020-057AX","TLE_LINE1":"1 46162U 20057AX  22093.85558927  .00000206  00000-0  32736-4 0  9991","PERIAPSIS":"546.170","MEAN_ELEMENT_THEORY":"SGP4","MEAN_MOTION":"15.06390865","TLE_LINE2":"2 46162  53.0553 262.3286 0001547  64.0628 296.0520 15.06390865 91191","INCLINATION":"53.0553","LAUNCH_DATE":"2020-08-18","EPOCH":"2022-04-03T20:32:02.912928","DECAY_DATE":null,"ELEMENT_SET_NO":"999"},{"EPHEMERIS_TYPE":"0","NORAD_CAT_ID":"46163","APOAPSIS":"548.347","GP_ID":"200377864","REF_FRAME":"TEME","RA_OF_ASC_NODE":"242.6293","TIME_SYSTEM":"UTC","RCS_SIZE":"LARGE","FILE":"3386965","CENTER_NAME":"EARTH","OBJECT_TYPE":"PAYLOAD","OBJECT_ID":"2020-057AY","MEAN_MOTION_DOT":"-0.00002637","TLE_LINE1":"1 46163U 20057AY  22093.78741092 -.00002637  00000-0 -15828-3 0  9995","EPOCH":"2022-04-03T18:53:52.303488","TLE_LINE2":"2 46163  53.0532 242.6293 0001542  62.7058 297.4088 15.06378555 90202","LAUNCH_DATE":"2020-08-18","INCLINATION":"53.0532","PERIAPSIS":"546.211","MEAN_MOTION":"15.06378555","MEAN_ELEMENT_THEORY":"SGP4","DECAY_DATE":null,"ELEMENT_SET_NO":"999","CLASSIFICATION_TYPE":"U","ARG_OF_PERICENTER":"62.7058","COUNTRY_CODE":"US","MEAN_MOTION_DDOT":"0.0000000000000","PERIOD":"95.594","MEAN_ANOMALY":"297.4088","OBJECT_NAME":"STARLINK-1610","SITE":"AFETR","REV_AT_EPOCH":"9020","SEMIMAJOR_AXIS":"6925.414","BSTAR":"-0.00015828000000","ECCENTRICITY":"0.00015420"},{"MEAN_MOTION_DDOT":"0.0000000000000","COUNTRY_CODE":"US","OBJECT_NAME":"STARLINK-1612","MEAN_ANOMALY":"287.5005","PERIOD":"95.592","ARG_OF_PERICENTER":"72.6135","CLASSIFICATION_TYPE":"U","BSTAR":"-0.00006345400000","ECCENTRICITY":"0.00013770","REV_AT_EPOCH":"9147","SITE":"AFETR","SEMIMAJOR_AXIS":"6925.352","FILE":"3386965","OBJECT_TYPE":"PAYLOAD","CENTER_NAME":"EARTH","NORAD_CAT_ID":"46164","APOAPSIS":"548.171","EPHEMERIS_TYPE":"0","TIME_SYSTEM":"UTC","GP_ID":"200376612","RA_OF_ASC_NODE":"242.3483","REF_FRAME":"TEME","RCS_SIZE":"LARGE","TLE_LINE2":"2 46164  53.0541 242.3483 0001377  72.6135 287.5005 15.06398735 91474","LAUNCH_DATE":"2020-08-18","INCLINATION":"53.0541","EPOCH":"2022-04-03T20:24:05.419872","MEAN_ELEMENT_THEORY":"SGP4","PERIAPSIS":"546.264","MEAN_MOTION":"15.06398735","DECAY_DATE":null,"ELEMENT_SET_NO":"999","MEAN_MOTION_DOT":"-0.00001226","OBJECT_ID":"2020-057AZ","TLE_LINE1":"1 46164U 20057AZ  22093.85006273 -.00001226  00000-0 -63454-4 0  9991"},{"CENTER_NAME":"EARTH","OBJECT_TYPE":"PAYLOAD","FILE":"3386529","RA_OF_ASC_NODE":"281.3793","GP_ID":"200347739","REF_FRAME":"TEME","TIME_SYSTEM":"UTC","RCS_SIZE":"LARGE","EPHEMERIS_TYPE":"0","NORAD_CAT_ID":"46165","APOAPSIS":"538.656","DECAY_DATE":null,"ELEMENT_SET_NO":"999","EPOCH":"2022-04-03T19:48:25.768800","LAUNCH_DATE":"2020-08-18","TLE_LINE2":"2 46165  53.0517 281.3793 0000968  91.9012 268.2089 15.09415486 90325","INCLINATION":"53.0517","PERIAPSIS":"537.317","MEAN_ELEMENT_THEORY":"SGP4","MEAN_MOTION":"15.09415486","TLE_LINE1":"1 46165U 20057BA  22093.82529825  .00019164  00000-0  11998-2 0  9994","OBJECT_ID":"2020-057BA","MEAN_MOTION_DOT":"0.00019164","MEAN_ANOMALY":"268.2089","PERIOD":"95.401","OBJECT_NAME":"STARLINK-1613","COUNTRY_CODE":"US","MEAN_MOTION_DDOT":"0.0000000000000","CLASSIFICATION_TYPE":"U","ARG_OF_PERICENTER":"91.9012","ECCENTRICITY":"0.00009680","BSTAR":"0.00119980000000","SEMIMAJOR_AXIS":"6916.122","REV_AT_EPOCH":"9032","SITE":"AFETR"}];
